[{"OBJECT_NAME":"ICEYE-X41","OBJECT_ID":"2025-009CV","EPOCH":"2026-03-09T16:55:08.694336","MEAN_MOTION":14.96071666,"ECCENTRICITY":0.00019001,"INCLINATION":97.711,"RA_OF_ASC_NODE":149.7146,"ARG_OF_PERICENTER":53.5813,"MEAN_ANOMALY":306.5584,"EPHEMERIS_TYPE":0,"CLASSIFICATION_TYPE":"U","NORAD_CAT_ID":62700,"ELEMENT_SET_NO":999,"REV_AT_EPOCH":6253,"BSTAR":0.00045867277,"MEAN_MOTION_DOT":5.098e-5,"MEAN_MOTION_DDOT":0},{"OBJECT_NAME":"STARLINK-34577","OBJECT_ID":"2025-142Z","EPOCH":"2026-03-09T20:22:49.679904","MEAN_MOTION":14.95911073,"ECCENTRICITY":0.0002346,"INCLINATION":70.0008,"RA_OF_ASC_NODE":314.0623,"ARG_OF_PERICENTER":271.1669,"MEAN_ANOMALY":88.922,"EPHEMERIS_TYPE":0,"CLASSIFICATION_TYPE":"U","NORAD_CAT_ID":64719,"ELEMENT_SET_NO":999,"REV_AT_EPOCH":3951,"BSTAR":0.00017350703,"MEAN_MOTION_DOT":1.855e-5,"MEAN_MOTION_DDOT":0}]
